GLOBALSTAR M084 [+]     
1 38040U 11080A   24026.50553615 -.00000109  00000+0 -29561-4 0  9997
2 38040  51.9998 154.0421 0000932  85.6760 351.7572 12.62270459558557
GLOBALSTAR M080 [+]     
1 38041U 11080B   24026.55910174 -.00000114  00000+0 -58913-4 0  9999
2 38041  52.0050 155.3078 0000800  77.5775   2.9236 12.62268615558688
GLOBALSTAR M082 [+]     
1 38042U 11080C   24026.41352359 -.00000087  00000+0  94312-4 0  9991
2 38042  52.0075 111.1432 0001255 136.8689 302.5189 12.62265304559373
GLOBALSTAR M092 [+]     
1 38043U 11080D   24026.62428907 -.00000095  00000+0  47773-4 0  9996
2 38043  52.0057 200.8544 0001209  83.6573 351.7548 12.62276083557856
GLOBALSTAR M090 [+]     
1 38044U 11080E   24026.52399873 -.00000080  00000+0  13208-3 0  9994
2 38044  51.9885 105.2684 0000889 136.1484 326.3335 12.62265485559505
GLOBALSTAR M086 [+]     
1 38045U 11080F   24026.55171142 -.00000082  00000+0  12161-3 0  9994
2 38045  51.9896 105.6968 0000497 228.1983 239.4907 12.62266631559455
GLOBALSTAR M097 [+]     
1 39072U 13005A   24026.15826419 -.00000086  00000+0  97075-4 0  9996
2 39072  52.0070  20.9231 0000223 160.8052 199.2823 12.62260261506657
GLOBALSTAR M093 [+]     
1 39073U 13005B   24026.13176730 -.00000091  00000+0  70604-4 0  9994
2 39073  51.9835  15.1203 0000193 177.6668 182.4200 12.62260213506600
